TIANQI-6                
1 46810U 20076D   26073.65713619  .00005819  00000+0  38742-3 0  9999
2 46810  34.9984 268.3327 0009972  52.6299 307.5317 15.06467518294317
KSM1-C                  
1 46906U 20081B   26073.60937709  .00017875  00000+0  70107-3 0  9990
2 46906  36.8934 282.1118 0001281 156.7095 203.3712 15.25040384294711
KSM1-D                  
1 46907U 20081C   26073.62402440  .00016267  00000+0  67314-3 0  9992
2 46907  36.8965 289.3163 0003075 191.4684 168.5994 15.23266943294665
KSM1-A                  
1 46912U 20081H   26073.63271593  .00012864  00000+0  51619-3 0  9992
2 46912  36.8961 283.6927 0002862 274.6729  85.3693 15.24368861294732
R2                      
1 46913U 20081J   26073.29660706  .00010982  00000+0  44720-3 0  9997
2 46913  36.8978 285.2966 0006058 206.9094 153.1341 15.23917832297493
KSM1-B                  
1 46914U 20081K   26073.61509376  .00010601  00000+0  44279-3 0  9996
2 46914  36.9021 289.7584 0005309 213.9097 146.1313 15.23079268297750
GONETS-M 20             
1 47227U 20091A   26073.58339191  .00000129  00000+0  85624-3 0  9990
2 47227  82.5097   1.2413 0021817  28.7681 331.4597 12.42890585239322
GONETS-M 21             
1 47228U 20091B   26073.55665181  .00000008  00000+0 -11131-4 0  9999
2 47228  82.5023   0.0233 0015764  42.8681 317.3624 12.42881376239311
GONETS-M 22             
1 47229U 20091C   26073.61070625  .00000211  00000+0  14535-2 0  9994
2 47229  82.5080   0.8441 0022629  24.0929 336.1204 12.42888639239276
CUBEL                   
1 47448U 21006AM  26073.37382274  .00011032  00000+0  28417-3 0  9991
2 47448  97.2472 124.9296 0007785 144.6870 215.4893 15.39351352285161
ASTROCAST-0103          
1 47487U 21006CC  26073.59706468  .00118380  00000+0  82100-3 0  9996
2 47487  97.2625 143.1952 0005634 139.4746 220.6939 15.74087395286297
ARKTIKA-M 1             
1 47719U 21016A   26072.78872222 -.00000108  00000+0  00000+0 0  9991
2 47719  63.2042  71.2738 7248342 269.5023  15.1596  2.00619294 36876
STARLINK-2342           
1 47883U 21021Z   26073.66668981  .00057756  00000+0  12036-2 0  9997
2 47883  53.1596 244.3224 0000848  71.2986 296.4132 15.45049146  5668
GRUS-1B                 
1 47934U 21022C   26073.64645461  .00001289  00000+0  11170-3 0  9990
2 47934  97.5544 319.8932 0014466 283.3413  76.6197 14.98750499271735
2021-022F               
1 47937U 21022F   26073.62382032  .00012905  00000+0  42661-3 0  9999
2 47937  97.3986 334.4660 0011960  72.2198 288.0348 15.31424193275231
UNISAT-7                
1 47945U 21022P   26073.24168096  .00018534  00000+0  49991-3 0  9995
2 47945  97.3970 337.3228 0011476  61.6893 298.5509 15.37781025275254
2021-022X               
1 47953U 21022X   26073.59843362  .00084154  00000+0  10338-2 0  9991
2 47953  97.3972 345.7500 0008241  54.0390 306.1630 15.59974652275698
