[{"OBJECT_NAME":"TIANQI-6","OBJECT_ID":"2020-076D","EPOCH":"2026-03-14T15:46:16.566816","MEAN_MOTION":15.06467518,"ECCENTRICITY":0.00099727,"INCLINATION":34.9984,"RA_OF_ASC_NODE":268.3327,"ARG_OF_PERICENTER":52.6299,"MEAN_ANOMALY":307.5317,"EPHEMERIS_TYPE":0,"CLASSIFICATION_TYPE":"U","NORAD_CAT_ID":46810,"ELEMENT_SET_NO":999,"REV_AT_EPOCH":29431,"BSTAR":0.0003874224,"MEAN_MOTION_DOT":5.819e-5,"MEAN_MOTION_DDOT":0},{"OBJECT_NAME":"KSM1-C","OBJECT_ID":"2020-081B","EPOCH":"2026-03-14T14:37:30.180576","MEAN_MOTION":15.25040384,"ECCENTRICITY":0.00012818,"INCLINATION":36.8934,"RA_OF_ASC_NODE":282.1118,"ARG_OF_PERICENTER":156.7095,"MEAN_ANOMALY":203.3712,"EPHEMERIS_TYPE":0,"CLASSIFICATION_TYPE":"U","NORAD_CAT_ID":46906,"ELEMENT_SET_NO":999,"REV_AT_EPOCH":29471,"BSTAR":0.00070106999,"MEAN_MOTION_DOT":0.00017875,"MEAN_MOTION_DDOT":0},{"OBJECT_NAME":"KSM1-D","OBJECT_ID":"2020-081C","EPOCH":"2026-03-14T14:58:35.708160","MEAN_MOTION":15.23266943,"ECCENTRICITY":0.00030751,"INCLINATION":36.8965,"RA_OF_ASC_NODE":289.3163,"ARG_OF_PERICENTER":191.4684,"MEAN_ANOMALY":168.5994,"EPHEMERIS_TYPE":0,"CLASSIFICATION_TYPE":"U","NORAD_CAT_ID":46907,"ELEMENT_SET_NO":999,"REV_AT_EPOCH":29466,"BSTAR":0.00067314323,"MEAN_MOTION_DOT":0.00016267,"MEAN_MOTION_DDOT":0},{"OBJECT_NAME":"KSM1-A","OBJECT_ID":"2020-081H","EPOCH":"2026-03-14T15:11:06.656352","MEAN_MOTION":15.24368861,"ECCENTRICITY":0.00028629,"INCLINATION":36.8961,"RA_OF_ASC_NODE":283.6927,"ARG_OF_PERICENTER":274.6729,"MEAN_ANOMALY":85.3693,"EPHEMERIS_TYPE":0,"CLASSIFICATION_TYPE":"U","NORAD_CAT_ID":46912,"ELEMENT_SET_NO":999,"REV_AT_EPOCH":29473,"BSTAR":0.00051619474,"MEAN_MOTION_DOT":0.00012864,"MEAN_MOTION_DDOT":0},{"OBJECT_NAME":"R2","OBJECT_ID":"2020-081J","EPOCH":"2026-03-14T07:07:06.849984","MEAN_MOTION":15.23917832,"ECCENTRICITY":0.00060584,"INCLINATION":36.8978,"RA_OF_ASC_NODE":285.2966,"ARG_OF_PERICENTER":206.9094,"MEAN_ANOMALY":153.1341,"EPHEMERIS_TYPE":0,"CLASSIFICATION_TYPE":"U","NORAD_CAT_ID":46913,"ELEMENT_SET_NO":999,"REV_AT_EPOCH":29749,"BSTAR":0.00044720368,"MEAN_MOTION_DOT":0.00010982,"MEAN_MOTION_DDOT":0},{"OBJECT_NAME":"KSM1-B","OBJECT_ID":"2020-081K","EPOCH":"2026-03-14T14:45:44.100864","MEAN_MOTION":15.23079268,"ECCENTRICITY":0.00053091,"INCLINATION":36.9021,"RA_OF_ASC_NODE":289.7584,"ARG_OF_PERICENTER":213.9097,"MEAN_ANOMALY":146.1313,"EPHEMERIS_TYPE":0,"CLASSIFICATION_TYPE":"U","NORAD_CAT_ID":46914,"ELEMENT_SET_NO":999,"REV_AT_EPOCH":29775,"BSTAR":0.0004427909,"MEAN_MOTION_DOT":0.00010601,"MEAN_MOTION_DDOT":0},{"OBJECT_NAME":"GONETS-M 20","OBJECT_ID":"2020-091A","EPOCH":"2026-03-14T14:00:05.061024","MEAN_MOTION":12.42890585,"ECCENTRICITY":0.00218178,"INCLINATION":82.5097,"RA_OF_ASC_NODE":1.2413,"ARG_OF_PERICENTER":28.7681,"MEAN_ANOMALY":331.4597,"EPHEMERIS_TYPE":0,"CLASSIFICATION_TYPE":"U","NORAD_CAT_ID":47227,"ELEMENT_SET_NO":999,"REV_AT_EPOCH":23932,"BSTAR":0.00085624001,"MEAN_MOTION_DOT":1.29e-6,"MEAN_MOTION_DDOT":0},{"OBJECT_NAME":"GONETS-M 21","OBJECT_ID":"2020-091B","EPOCH":"2026-03-14T13:21:34.716384","MEAN_MOTION":12.42881376,"ECCENTRICITY":0.00157641,"INCLINATION":82.5023,"RA_OF_ASC_NODE":0.0233,"ARG_OF_PERICENTER":42.8681,"MEAN_ANOMALY":317.3624,"EPHEMERIS_TYPE":0,"CLASSIFICATION_TYPE":"U","NORAD_CAT_ID":47228,"ELEMENT_SET_NO":999,"REV_AT_EPOCH":23931,"BSTAR":-1.1130646e-5,"MEAN_MOTION_DOT":8.0e-8,"MEAN_MOTION_DDOT":0},{"OBJECT_NAME":"GONETS-M 22","OBJECT_ID":"2020-091C","EPOCH":"2026-03-14T14:39:25.020000","MEAN_MOTION":12.42888639,"ECCENTRICITY":0.00226298,"INCLINATION":82.508,"RA_OF_ASC_NODE":0.8441,"ARG_OF_PERICENTER":24.0929,"MEAN_ANOMALY":336.1204,"EPHEMERIS_TYPE":0,"CLASSIFICATION_TYPE":"U","NORAD_CAT_ID":47229,"ELEMENT_SET_NO":999,"REV_AT_EPOCH":23927,"BSTAR":0.0014534882,"MEAN_MOTION_DOT":2.11e-6,"MEAN_MOTION_DDOT":0},{"OBJECT_NAME":"CUBEL","OBJECT_ID":"2021-006AM","EPOCH":"2026-03-14T08:58:18.284736","MEAN_MOTION":15.39351352,"ECCENTRICITY":0.00077859,"INCLINATION":97.2472,"RA_OF_ASC_NODE":124.9296,"ARG_OF_PERICENTER":144.687,"MEAN_ANOMALY":215.4893,"EPHEMERIS_TYPE":0,"CLASSIFICATION_TYPE":"U","NORAD_CAT_ID":47448,"ELEMENT_SET_NO":999,"REV_AT_EPOCH":28516,"BSTAR":0.00028417155,"MEAN_MOTION_DOT":0.00011032,"MEAN_MOTION_DDOT":0},{"OBJECT_NAME":"ASTROCAST-0103","OBJECT_ID":"2021-006CC","EPOCH":"2026-03-14T14:19:46.388352","MEAN_MOTION":15.74087395,"ECCENTRICITY":0.00056342,"INCLINATION":97.2625,"RA_OF_ASC_NODE":143.1952,"ARG_OF_PERICENTER":139.4746,"MEAN_ANOMALY":220.6939,"EPHEMERIS_TYPE":0,"CLASSIFICATION_TYPE":"U","NORAD_CAT_ID":47487,"ELEMENT_SET_NO":999,"REV_AT_EPOCH":28629,"BSTAR":0.00082100312,"MEAN_MOTION_DOT":0.0011838,"MEAN_MOTION_DDOT":0},{"OBJECT_NAME":"ARKTIKA-M 1","OBJECT_ID":"2021-016A","EPOCH":"2026-03-13T18:55:45.599808","MEAN_MOTION":2.00619294,"ECCENTRICITY":0.7248342,"INCLINATION":63.2042,"RA_OF_ASC_NODE":71.2738,"ARG_OF_PERICENTER":269.5023,"MEAN_ANOMALY":15.1596,"EPHEMERIS_TYPE":0,"CLASSIFICATION_TYPE":"U","NORAD_CAT_ID":47719,"ELEMENT_SET_NO":999,"REV_AT_EPOCH":3687,"BSTAR":0,"MEAN_MOTION_DOT":-1.08e-6,"MEAN_MOTION_DDOT":0},{"OBJECT_NAME":"STARLINK-2342","OBJECT_ID":"2021-021Z","EPOCH":"2026-03-14T16:00:01.999584","MEAN_MOTION":15.45049146,"ECCENTRICITY":8.482e-5,"INCLINATION":53.1596,"RA_OF_ASC_NODE":244.3224,"ARG_OF_PERICENTER":71.2986,"MEAN_ANOMALY":296.4132,"EPHEMERIS_TYPE":0,"CLASSIFICATION_TYPE":"U","NORAD_CAT_ID":47883,"ELEMENT_SET_NO":999,"REV_AT_EPOCH":566,"BSTAR":0.0012036011,"MEAN_MOTION_DOT":0.00057756,"MEAN_MOTION_DDOT":0},{"OBJECT_NAME":"GRUS-1B","OBJECT_ID":"2021-022C","EPOCH":"2026-03-14T15:30:53.678304","MEAN_MOTION":14.98750499,"ECCENTRICITY":0.00144661,"INCLINATION":97.5544,"RA_OF_ASC_NODE":319.8932,"ARG_OF_PERICENTER":283.3413,"MEAN_ANOMALY":76.6197,"EPHEMERIS_TYPE":0,"CLASSIFICATION_TYPE":"U","NORAD_CAT_ID":47934,"ELEMENT_SET_NO":999,"REV_AT_EPOCH":27173,"BSTAR":0.00011169915,"MEAN_MOTION_DOT":1.289e-5,"MEAN_MOTION_DDOT":0},{"OBJECT_NAME":"2021-022F","OBJECT_ID":"2021-022F","EPOCH":"2026-03-14T14:58:18.075648","MEAN_MOTION":15.31424193,"ECCENTRICITY":0.00119602,"INCLINATION":97.3986,"RA_OF_ASC_NODE":334.466,"ARG_OF_PERICENTER":72.2198,"MEAN_ANOMALY":288.0348,"EPHEMERIS_TYPE":0,"CLASSIFICATION_TYPE":"U","NORAD_CAT_ID":47937,"ELEMENT_SET_NO":999,"REV_AT_EPOCH":27523,"BSTAR":0.00042661213,"MEAN_MOTION_DOT":0.00012905,"MEAN_MOTION_DDOT":0},{"OBJECT_NAME":"UNISAT-7","OBJECT_ID":"2021-022P","EPOCH":"2026-03-14T05:48:01.234944","MEAN_MOTION":15.37781025,"ECCENTRICITY":0.00114767,"INCLINATION":97.397,"RA_OF_ASC_NODE":337.3228,"ARG_OF_PERICENTER":61.6893,"MEAN_ANOMALY":298.5509,"EPHEMERIS_TYPE":0,"CLASSIFICATION_TYPE":"U","NORAD_CAT_ID":47945,"ELEMENT_SET_NO":999,"REV_AT_EPOCH":27525,"BSTAR":0.00049990667,"MEAN_MOTION_DOT":0.00018534,"MEAN_MOTION_DDOT":0},{"OBJECT_NAME":"2021-022X","OBJECT_ID":"2021-022X","EPOCH":"2026-03-14T14:21:44.664768","MEAN_MOTION":15.59974652,"ECCENTRICITY":0.00082416,"INCLINATION":97.3972,"RA_OF_ASC_NODE":345.75,"ARG_OF_PERICENTER":54.039,"MEAN_ANOMALY":306.163,"EPHEMERIS_TYPE":0,"CLASSIFICATION_TYPE":"U","NORAD_CAT_ID":47953,"ELEMENT_SET_NO":999,"REV_AT_EPOCH":27569,"BSTAR":0.0010337542,"MEAN_MOTION_DOT":0.00084154,"MEAN_MOTION_DDOT":0}]
